[{"OBJECT_NAME":"SHIYAN-6 03 (SY-6 03)","OBJECT_ID":"2021-028A","EPOCH":"2026-03-09T22:49:05.080800","MEAN_MOTION":13.77596335,"ECCENTRICITY":0.0046038,"INCLINATION":99.5345,"RA_OF_ASC_NODE":82.5401,"ARG_OF_PERICENTER":347.8227,"MEAN_ANOMALY":12.1807,"EPHEMERIS_TYPE":0,"CLASSIFICATION_TYPE":"U","NORAD_CAT_ID":48157,"ELEMENT_SET_NO":999,"REV_AT_EPOCH":24584,"BSTAR":1.7068221e-5,"MEAN_MOTION_DOT":-2.9e-7,"MEAN_MOTION_DDOT":0},{"OBJECT_NAME":"METEOR 2-20","OBJECT_ID":"1990-086A","EPOCH":"2026-03-09T22:13:46.221888","MEAN_MOTION":13.84452784,"ECCENTRICITY":0.00124144,"INCLINATION":82.521,"RA_OF_ASC_NODE":276.7195,"ARG_OF_PERICENTER":307.855,"MEAN_ANOMALY":52.1486,"EPHEMERIS_TYPE":0,"CLASSIFICATION_TYPE":"U","NORAD_CAT_ID":20826,"ELEMENT_SET_NO":999,"REV_AT_EPOCH":79058,"BSTAR":2.8851715e-5,"MEAN_MOTION_DOT":4.7e-7,"MEAN_MOTION_DDOT":0}]
